OBJECT_NAME,OBJECT_ID,EPOCH,MEAN_MOTION,ECCENTRICITY,INCLINATION,RA_OF_ASC_NODE,ARG_OF_PERICENTER,MEAN_ANOMALY,EPHEMERIS_TYPE,CLASSIFICATION_TYPE,NORAD_CAT_ID,ELEMENT_SET_NO,REV_AT_EPOCH,BSTAR,MEAN_MOTION_DOT,MEAN_MOTION_DDOT
STARLINK-5705,2023-015Z,2026-07-08T22:25:38.353152,15.27566423,.00022229,43.0055,357.0624,264.3319,95.7279,0,U,55472,999,18934,.10702702E-3,.2683E-4,0
STARLINK-5689,2023-015AB,2026-07-08T12:55:36.021504,15.27573527,.00010116,43.0025,17.5728,230.5435,129.5327,0,U,55474,999,18907,-.5341949E-5,-.409E-5,0
STARLINK-5650,2023-015AC,2026-07-08T13:08:34.865664,15.27570384,.0001252,43.0064,6.3514,273.0609,87.0100,0,U,55475,999,18920,-.18271509E-4,-.765E-5,0
STARLINK-5685,2023-015AE,2026-07-08T18:14:24.304128,15.27583511,.00012249,43.0029,357.4775,279.2096,80.8617,0,U,55477,999,18932,.6255836E-4,.146E-4,0
STARLINK-5691,2023-015AF,2026-07-08T12:33:38.389536,15.27576087,.00019626,43.0071,355.7233,278.8442,81.2188,0,U,55478,999,18932,-.9630336E-5,-.527E-5,0
STARLINK-5688,2023-015AG,2026-07-08T18:56:58.409088,15.27571946,.00019539,43.0059,357.6958,268.1037,91.9591,0,U,55479,999,18932,.4844297E-4,.1071E-4,0
STARLINK-5690,2023-015AH,2026-07-08T12:07:29.298144,15.27569845,.00016026,43.0069,17.2487,266.5401,93.5267,0,U,55480,999,18907,-.941147E-6,-.288E-5,0
STARLINK-5694,2023-015AJ,2026-07-08T12:33:23.336928,15.27580507,.00015629,43.0046,17.4671,271.3784,88.6889,0,U,55481,999,18907,.30696922E-4,.583E-5,0
STARLINK-5692,2023-015AL,2026-07-08T19:52:44.401152,15.27450136,.00024353,43.0044,15.4520,175.5443,184.5430,0,U,55483,999,18912,.94422886E-3,.2571E-3,0
STARLINK-5696,2023-015AM,2026-07-08T20:38:58.309440,15.27580031,.00014241,43.0034,15.6884,270.6041,89.4648,0,U,55484,999,18912,.29739443E-4,.556E-5,0
STARLINK-5695,2023-015AN,2026-07-08T20:35:16.024704,15.27584489,.00017507,43.0036,15.6722,266.6107,93.4544,0,U,55485,999,18912,.49050195E-4,.1088E-4,0
STARLINK-5704,2023-015AP,2026-07-08T12:38:56.214528,15.27577296,.00015132,43.0040,17.4420,264.2545,95.8134,0,U,55486,999,18907,.38957639E-4,.81E-5,0
STARLINK-5701,2023-015AQ,2026-07-08T20:13:04.356192,15.27567119,.00013515,43.0053,15.5613,281.0890,78.9810,0,U,55487,999,18912,.18463562E-4,.246E-5,0
STARLINK-5706,2023-015AR,2026-07-08T12:18:36.171360,15.27573114,.00017249,43.0068,17.3799,275.2781,84.7874,0,U,55488,999,18907,.13427608E-4,.107E-5,0
STARLINK-5371,2023-015AS,2026-07-08T06:11:13.872480,15.27573761,.0001921,43.0055,18.9140,269.4239,90.6392,0,U,55489,999,18903,.41850724E-4,.889E-5,0
STARLINK-5373,2023-015AT,2026-07-08T11:50:50.610048,15.27574817,.00013249,43.0049,17.2311,281.1142,78.9560,0,U,55490,999,18907,.16252473E-4,.185E-5,0
STARLINK-5364,2023-015AU,2026-07-08T18:36:34.776864,15.27606212,.00003581,43.0031,357.5732,193.5321,166.5521,0,U,55491,999,18932,.13938608E-3,.3579E-4,0
STARLINK-5013,2023-015AV,2026-07-08T21:50:55.165344,15.27581178,.00018961,43.0059,15.1946,282.9406,77.1234,0,U,55492,999,18913,.30133799E-4,.567E-5,0
STARLINK-5362,2023-015AW,2026-07-08T13:32:23.015328,15.27583438,.00009497,43.0048,16.9065,251.5675,108.5074,0,U,55493,999,18908,.39200733E-4,.817E-5,0
STARLINK-5344,2023-015AX,2026-07-08T12:29:41.180928,15.27577957,.00017562,43.0060,17.4376,272.3529,87.7122,0,U,55494,999,18907,.52520513E-4,.1183E-4,0
STARLINK-5100,2023-015AY,2026-07-08T21:54:11.175840,15.27571640,.00014698,43.0053,356.9047,266.3265,93.7419,0,U,55495,999,18934,.48598423E-4,.1075E-4,0
STARLINK-5363,2023-015BA,2026-07-08T22:00:11.786976,15.27575218,.00017868,43.0049,15.2448,275.5154,84.5494,0,U,55497,999,18913,.27907732E-4,.506E-5,0
STARLINK-5365,2023-015BB,2026-07-08T12:50:02.634144,15.27581932,.0001626,43.0036,17.5346,268.5345,91.5321,0,U,55498,999,18907,.39381485E-4,.822E-5,0
STARLINK-5366,2023-015BC,2026-07-08T05:26:48.136128,15.27576223,.00011725,43.0032,18.6690,280.7678,79.3042,0,U,55499,999,18978,.13392513E-4,.106E-5,0
STARLINK-5141,2023-015BD,2026-07-08T20:31:34.136544,15.27580907,.00017145,43.0045,15.6460,269.9413,90.1242,0,U,55500,999,18912,.35688825E-4,.72E-5,0
STARLINK-5367,2023-015BE,2026-07-08T22:26:04.659360,15.27584000,.00012233,43.0025,15.3665,263.0539,97.0174,0,U,55501,999,18913,.51607652E-4,.1158E-4,0
STARLINK-5749,2023-020A,2026-07-08T22:35:33.910080,15.27579091,.00011834,43.0010,44.1042,277.4013,82.6704,0,U,55569,999,18848,.50277096E-4,.1122E-4,0
STARLINK-5737,2023-020B,2026-07-08T22:15:55.070208,15.27577364,.0001434,43.0046,40.5954,263.6654,96.4035,0,U,55570,999,18745,.18192757E-4,.238E-5,0
STARLINK-5739,2023-020C,2026-07-08T22:05:57.772320,15.27571214,.00011336,43.0045,43.9577,278.8592,81.2131,0,U,55571,999,18741,-.67391775E-4,-.2115E-4,0
STARLINK-5732,2023-020D,2026-07-08T07:54:50.656608,15.27575913,.0001363,43.0060,47.2603,259.9540,100.1158,0,U,55572,999,18732,.51439038E-4,.1153E-4,0
