STARLINK-5705           
1 55472U 23015Z   26189.93447168  .00002683  00000+0  10703-3 0  9994
2 55472  43.0055 357.0624 0002222 264.3319  95.7279 15.27566423189340
STARLINK-5689           
1 55474U 23015AB  26189.53861136 -.00000409  00000+0 -53419-5 0  9996
2 55474  43.0025  17.5728 0001011 230.5435 129.5327 15.27573527189074
STARLINK-5650           
1 55475U 23015AC  26189.54762576 -.00000765  00000+0 -18272-4 0  9998
2 55475  43.0064   6.3514 0001252 273.0609  87.0100 15.27570384189209
STARLINK-5685           
1 55477U 23015AE  26189.76000352  .00001460  00000+0  62558-4 0  9998
2 55477  43.0029 357.4775 0001224 279.2096  80.8617 15.27583511189321
STARLINK-5691           
1 55478U 23015AF  26189.52336099 -.00000527  00000+0 -96303-5 0  9994
2 55478  43.0071 355.7233 0001962 278.8442  81.2188 15.27576087189326
STARLINK-5688           
1 55479U 23015AG  26189.78956492  .00001071  00000+0  48443-4 0  9992
2 55479  43.0059 357.6958 0001953 268.1037  91.9591 15.27571946189325
STARLINK-5690           
1 55480U 23015AH  26189.50520021 -.00000288  00000+0 -94115-6 0  9999
2 55480  43.0069  17.2487 0001602 266.5401  93.5267 15.27569845189077
STARLINK-5694           
1 55481U 23015AJ  26189.52318677  .00000583  00000+0  30697-4 0  9993
2 55481  43.0046  17.4671 0001562 271.3784  88.6889 15.27580507189076
STARLINK-5692           
1 55483U 23015AL  26189.82829168  .00025710  00000+0  94423-3 0  9995
2 55483  43.0044  15.4520 0002435 175.5443 184.5430 15.27450136189122
STARLINK-5696           
1 55484U 23015AM  26189.86039710  .00000556  00000+0  29739-4 0  9996
2 55484  43.0034  15.6884 0001424 270.6041  89.4648 15.27580031189127
STARLINK-5695           
1 55485U 23015AN  26189.85782436  .00001088  00000+0  49050-4 0  9995
2 55485  43.0036  15.6722 0001750 266.6107  93.4544 15.27584489189122
STARLINK-5704           
1 55486U 23015AP  26189.52703952  .00000810  00000+0  38958-4 0  9993
2 55486  43.0040  17.4420 0001513 264.2545  95.8134 15.27577296189073
STARLINK-5701           
1 55487U 23015AQ  26189.84241153  .00000246  00000+0  18464-4 0  9992
2 55487  43.0053  15.5613 0001351 281.0890  78.9810 15.27567119189123
STARLINK-5706           
1 55488U 23015AR  26189.51291865  .00000107  00000+0  13428-4 0  9993
2 55488  43.0068  17.3799 0001724 275.2781  84.7874 15.27573114189074
STARLINK-5371           
1 55489U 23015AS  26189.25779945  .00000889  00000+0  41851-4 0  9993
2 55489  43.0055  18.9140 0001921 269.4239  90.6392 15.27573761189035
STARLINK-5373           
1 55490U 23015AT  26189.49364132  .00000185  00000+0  16252-4 0  9995
2 55490  43.0049  17.2311 0001324 281.1142  78.9560 15.27574817189076
STARLINK-5364           
1 55491U 23015AU  26189.77540251  .00003579  00000+0  13939-3 0  9993
2 55491  43.0031 357.5732 0000358 193.5321 166.5521 15.27606212189320
STARLINK-5013           
1 55492U 23015AV  26189.91036071  .00000567  00000+0  30134-4 0  9991
2 55492  43.0059  15.1946 0001896 282.9406  77.1234 15.27581178189130
STARLINK-5362           
1 55493U 23015AW  26189.56415527  .00000817  00000+0  39201-4 0  9992
2 55493  43.0048  16.9065 0000949 251.5675 108.5074 15.27583438189084
STARLINK-5344           
1 55494U 23015AX  26189.52061552  .00001183  00000+0  52521-4 0  9991
2 55494  43.0060  17.4376 0001756 272.3529  87.7122 15.27577957189076
STARLINK-5100           
1 55495U 23015AY  26189.91262935  .00001075  00000+0  48598-4 0  9992
2 55495  43.0053 356.9047 0001469 266.3265  93.7419 15.27571640189345
STARLINK-5363           
1 55497U 23015BA  26189.91680309  .00000506  00000+0  27908-4 0  9993
2 55497  43.0049  15.2448 0001786 275.5154  84.5494 15.27575218189136
STARLINK-5365           
1 55498U 23015BB  26189.53475271  .00000822  00000+0  39381-4 0  9991
2 55498  43.0036  17.5346 0001626 268.5345  91.5321 15.27581932189072
STARLINK-5366           
1 55499U 23015BC  26189.22694602  .00000106  00000+0  13393-4 0  9999
2 55499  43.0032  18.6690 0001172 280.7678  79.3042 15.27576223189783
STARLINK-5141           
1 55500U 23015BD  26189.85525621  .00000720  00000+0  35689-4 0  9999
2 55500  43.0045  15.6460 0001714 269.9413  90.1242 15.27580907189125
STARLINK-5367           
1 55501U 23015BE  26189.93477615  .00001158  00000+0  51608-4 0  9993
2 55501  43.0025  15.3665 0001223 263.0539  97.0174 15.27584000189136
STARLINK-5749           
1 55569U 23020A   26189.94136470  .00001122  00000+0  50277-4 0  9997
2 55569  43.0010  44.1042 0001183 277.4013  82.6704 15.27579091188484
STARLINK-5737           
1 55570U 23020B   26189.92772072  .00000238  00000+0  18193-4 0  9999
2 55570  43.0046  40.5954 0001434 263.6654  96.4035 15.27577364187451
STARLINK-5739           
1 55571U 23020C   26189.92080755 -.00002115  00000+0 -67392-4 0  9993
2 55571  43.0045  43.9577 0001133 278.8592  81.2131 15.27571214187417
STARLINK-5732           
1 55572U 23020D   26189.32975297  .00001153  00000+0  51439-4 0  9996
2 55572  43.0060  47.2603 0001363 259.9540 100.1158 15.27575913187320
